start=new Date('2022-09-03T00:00:00.000Z').valueOf();
sats=[{"SITE":"AFETR","FILE":"3555279","EPHEMERIS_TYPE":"0","MEAN_ELEMENT_THEORY":"SGP4","NORAD_CAT_ID":"46579","EPOCH":"2022-09-02T04:47:41.622720","MEAN_MOTION_DOT":"0.00001250","TLE_LINE2":"2 46579  53.0553 167.9203 0001628  78.0105 282.1066 15.06401298106110","CLASSIFICATION_TYPE":"U","ECCENTRICITY":"0.00016280","REV_AT_EPOCH":"10611","PERIAPSIS":"546.082","OBJECT_TYPE":"PAYLOAD","GP_ID":"211555219","MEAN_ANOMALY":"282.1066","DECAY_DATE":null,"RA_OF_ASC_NODE":"167.9203","COUNTRY_CODE":"US","CENTER_NAME":"EARTH","TLE_LINE1":"1 46579U 20070AZ  22245.19978730  .00001250  00000-0  10278-3 0  9998","REF_FRAME":"TEME","MEAN_MOTION":"15.06401298","RCS_SIZE":"LARGE","APOAPSIS":"548.337","TIME_SYSTEM":"UTC","PERIOD":"95.592","ARG_OF_PERICENTER":"78.0105","OBJECT_NAME":"STARLINK-1705","OBJECT_ID":"2020-070AZ","INCLINATION":"53.0553","MEAN_MOTION_DDOT":"0.0000000000000","LAUNCH_DATE":"2020-10-06","ELEMENT_SET_NO":"999","SEMIMAJOR_AXIS":"6925.345","BSTAR":"0.00010278000000"},{"FILE":"3555599","EPHEMERIS_TYPE":"0","SITE":"AFETR","MEAN_MOTION_DOT":"-0.00000901","EPOCH":"2022-09-02T18:35:42.958464","MEAN_ELEMENT_THEORY":"SGP4","NORAD_CAT_ID":"46580","CLASSIFICATION_TYPE":"U","ECCENTRICITY":"0.00016460","TLE_LINE2":"2 46580  53.0555 165.3359 0001646  75.1629 284.9542 15.06397217106201","REV_AT_EPOCH":"10620","PERIAPSIS":"546.082","GP_ID":"211587769","OBJECT_TYPE":"PAYLOAD","COUNTRY_CODE":"US","MEAN_ANOMALY":"284.9542","RA_OF_ASC_NODE":"165.3359","DECAY_DATE":null,"REF_FRAME":"TEME","TLE_LINE1":"1 46580U 20070BA  22245.77480276 -.00000901  00000-0 -41580-4 0  9992","CENTER_NAME":"EARTH","MEAN_MOTION":"15.06397217","TIME_SYSTEM":"UTC","APOAPSIS":"548.362","PERIOD":"95.592","RCS_SIZE":"LARGE","ARG_OF_PERICENTER":"75.1629","OBJECT_NAME":"STARLINK-1708","OBJECT_ID":"2020-070BA","INCLINATION":"53.0555","MEAN_MOTION_DDOT":"0.0000000000000","LAUNCH_DATE":"2020-10-06","ELEMENT_SET_NO":"999","BSTAR":"-0.00004158000000","SEMIMAJOR_AXIS":"6925.357"},{"TLE_LINE2":"2 46581  53.0538 160.2047 0001509  77.4972 282.6186 15.06393503106275","ECCENTRICITY":"0.00015090","CLASSIFICATION_TYPE":"U","MEAN_ELEMENT_THEORY":"SGP4","EPOCH":"2022-09-02T19:21:30.081888","NORAD_CAT_ID":"46581","MEAN_MOTION_DOT":"0.00000665","SITE":"AFETR","EPHEMERIS_TYPE":"0","FILE":"3555599","MEAN_MOTION":"15.06393503","CENTER_NAME":"EARTH","REF_FRAME":"TEME","TLE_LINE1":"1 46581U 20070BB  22245.80659817  .00000665  00000-0  63566-4 0  9999","RA_OF_ASC_NODE":"160.2047","DECAY_DATE":null,"MEAN_ANOMALY":"282.6186","COUNTRY_CODE":"US","OBJECT_TYPE":"PAYLOAD","GP_ID":"211586532","PERIAPSIS":"546.188","REV_AT_EPOCH":"10627","INCLINATION":"53.0538","OBJECT_ID":"2020-070BB","OBJECT_NAME":"STARLINK-1712","ARG_OF_PERICENTER":"77.4972","RCS_SIZE":"LARGE","PERIOD":"95.593","APOAPSIS":"548.279","TIME_SYSTEM":"UTC","SEMIMAJOR_AXIS":"6925.368","BSTAR":"0.00006356600000","LAUNCH_DATE":"2020-10-06","ELEMENT_SET_NO":"999","MEAN_MOTION_DDOT":"0.0000000000000"},{"MEAN_MOTION_DOT":"0.00000817","MEAN_ELEMENT_THEORY":"SGP4","NORAD_CAT_ID":"46582","EPOCH":"2022-09-02T11:02:34.137312","CLASSIFICATION_TYPE":"U","ECCENTRICITY":"0.00018860","TLE_LINE2":"2 46582  53.0561 161.7562 0001886  58.2308 301.8864 15.06398472106220","FILE":"3555279","EPHEMERIS_TYPE":"0","SITE":"AFETR","REF_FRAME":"TEME","TLE_LINE1":"1 46582U 20070BC  22245.46011733  .00000817  00000-0  73760-4 0  9997","CENTER_NAME":"EARTH","MEAN_MOTION":"15.06398472","REV_AT_EPOCH":"10622","PERIAPSIS":"545.912","OBJECT_TYPE":"PAYLOAD","GP_ID":"211554994","COUNTRY_CODE":"US","MEAN_ANOMALY":"301.8864","DECAY_DATE":null,"RA_OF_ASC_NODE":"161.7562","OBJECT_ID":"2020-070BC","OBJECT_NAME":"STARLINK-1728","INCLINATION":"53.0561","APOAPSIS":"548.524","TIME_SYSTEM":"UTC","PERIOD":"95.592","RCS_SIZE":"LARGE","ARG_OF_PERICENTER":"58.2308","BSTAR":"0.00007376000000","SEMIMAJOR_AXIS":"6925.353","MEAN_MOTION_DDOT":"0.0000000000000","ELEMENT_SET_NO":"999","LAUNCH_DATE":"2020-10-06"},{"ELEMENT_SET_NO":"999","LAUNCH_DATE":"2020-10-06","MEAN_MOTION_DDOT":"0.0000000000000","BSTAR":"0.00000092196000","SEMIMAJOR_AXIS":"6925.370","ARG_OF_PERICENTER":"76.3863","TIME_SYSTEM":"UTC","APOAPSIS":"548.196","PERIOD":"95.593","RCS_SIZE":"LARGE","INCLINATION":"53.0559","OBJECT_ID":"2020-070BD","OBJECT_NAME":"STARLINK-1729","COUNTRY_CODE":"US","MEAN_ANOMALY":"283.7280","RA_OF_ASC_NODE":"180.0444","DECAY_DATE":null,"REV_AT_EPOCH":"10599","PERIAPSIS":"546.274","OBJECT_TYPE":"PAYLOAD","GP_ID":"211587033","MEAN_MOTION":"15.06393078","TLE_LINE1":"1 46583U 20070BD  22245.84161121 -.00000268  00000-0  92196-6 0  9994","REF_FRAME":"TEME","CENTER_NAME":"EARTH","FILE":"3555599","EPHEMERIS_TYPE":"0","SITE":"AFETR","CLASSIFICATION_TYPE":"U","ECCENTRICITY":"0.00013880","TLE_LINE2":"2 46583  53.0559 180.0444 0001388  76.3863 283.7280 15.06393078105995","MEAN_MOTION_DOT":"-0.00000268","EPOCH":"2022-09-02T20:11:55.208544","MEAN_ELEMENT_THEORY":"SGP4","NORAD_CAT_ID":"46583"},{"FILE":"3555599","EPHEMERIS_TYPE":"0","SITE":"AFETR","CLASSIFICATION_TYPE":"U","ECCENTRICITY":"0.00016490","TLE_LINE2":"2 46584  53.0555 160.2511 0001649  70.9496 289.1672 15.06389066106278","MEAN_MOTION_DOT":"0.00000086","EPOCH":"2022-09-02T19:05:34.535904","NORAD_CAT_ID":"46584","MEAN_ELEMENT_THEORY":"SGP4","COUNTRY_CODE":"US","MEAN_ANOMALY":"289.1672","DECAY_DATE":null,"RA_OF_ASC_NODE":"160.2511","PERIAPSIS":"546.105","REV_AT_EPOCH":"10627","GP_ID":"211587771","OBJECT_TYPE":"PAYLOAD","MEAN_MOTION":"15.06389066","REF_FRAME":"TEME","TLE_LINE1":"1 46584U 20070BE  22245.79553861  .00000086  00000-0  24668-4 0  9999","CENTER_NAME":"EARTH","ARG_OF_PERICENTER":"70.9496","APOAPSIS":"548.389","TIME_SYSTEM":"UTC","PERIOD":"95.593","RCS_SIZE":"LARGE","INCLINATION":"53.0555","OBJECT_NAME":"STARLINK-1732","OBJECT_ID":"2020-070BE","LAUNCH_DATE":"2020-10-06","ELEMENT_SET_NO":"999","MEAN_MOTION_DDOT":"0.0000000000000","BSTAR":"0.00002466800000","SEMIMAJOR_AXIS":"6925.382"},{"SEMIMAJOR_AXIS":"6925.365","BSTAR":"0.00015671000000","LAUNCH_DATE":"2020-10-06","ELEMENT_SET_NO":"999","MEAN_MOTION_DDOT":"0.0000000000000","INCLINATION":"53.0556","OBJECT_NAME":"STARLINK-1736","OBJECT_ID":"2020-070BF","ARG_OF_PERICENTER":"67.8621","RCS_SIZE":"LARGE","PERIOD":"95.592","TIME_SYSTEM":"UTC","APOAPSIS":"548.420","MEAN_MOTION":"15.06394679","CENTER_NAME":"EARTH","TLE_LINE1":"1 46585U 20070BF  22245.48129471  .00002053  00000-0  15671-3 0  9991","REF_FRAME":"TEME","DECAY_DATE":null,"RA_OF_ASC_NODE":"161.6510","MEAN_ANOMALY":"292.2551","COUNTRY_CODE":"US","GP_ID":"211554744","OBJECT_TYPE":"PAYLOAD","REV_AT_EPOCH":"10622","PERIAPSIS":"546.039","TLE_LINE2":"2 46585  53.0556 161.6510 0001719  67.8621 292.2551 15.06394679106229","ECCENTRICITY":"0.00017190","CLASSIFICATION_TYPE":"U","MEAN_ELEMENT_THEORY":"SGP4","EPOCH":"2022-09-02T11:33:03.862944","NORAD_CAT_ID":"46585","MEAN_MOTION_DOT":"0.00002053","SITE":"AFETR","EPHEMERIS_TYPE":"0","FILE":"3555279"},{"REF_FRAME":"TEME","TLE_LINE1":"1 46586U 20070BG  22245.47117810  .00005303  00000-0  37459-3 0  9994","CENTER_NAME":"EARTH","MEAN_MOTION":"15.06402958","PERIAPSIS":"546.018","REV_AT_EPOCH":"10622","GP_ID":"211554494","OBJECT_TYPE":"PAYLOAD","COUNTRY_CODE":"US","MEAN_ANOMALY":"289.9112","DECAY_DATE":null,"RA_OF_ASC_NODE":"161.6998","MEAN_MOTION_DOT":"0.00005303","MEAN_ELEMENT_THEORY":"SGP4","NORAD_CAT_ID":"46586","EPOCH":"2022-09-02T11:18:29.787840","CLASSIFICATION_TYPE":"U","ECCENTRICITY":"0.00017130","TLE_LINE2":"2 46586  53.0517 161.6998 0001713  70.2061 289.9112 15.06402958106223","FILE":"3555279","EPHEMERIS_TYPE":"0","SITE":"AFETR","BSTAR":"0.00037459000000","SEMIMAJOR_AXIS":"6925.339","MEAN_MOTION_DDOT":"0.0000000000000","ELEMENT_SET_NO":"999","LAUNCH_DATE":"2020-10-06","OBJECT_ID":"2020-070BG","OBJECT_NAME":"STARLINK-1737","INCLINATION":"53.0517","APOAPSIS":"548.391","TIME_SYSTEM":"UTC","PERIOD":"95.592","RCS_SIZE":"LARGE","ARG_OF_PERICENTER":"70.2061"},{"DECAY_DATE":null,"RA_OF_ASC_NODE":"162.9825","MEAN_ANOMALY":"306.4005","COUNTRY_CODE":"US","OBJECT_TYPE":"PAYLOAD","GP_ID":"211555220","PERIAPSIS":"545.937","REV_AT_EPOCH":"10618","MEAN_MOTION":"15.06406728","CENTER_NAME":"EARTH","TLE_LINE1":"1 46588U 20070BJ  22245.18734868 -.00003017  00000-0 -18366-3 0  9990","REF_FRAME":"TEME","SITE":"AFETR","EPHEMERIS_TYPE":"0","FILE":"3555279","TLE_LINE2":"2 46588  53.0550 162.9825 0001813  53.7152 306.4005 15.06406728106183","ECCENTRICITY":"0.00018130","CLASSIFICATION_TYPE":"U","NORAD_CAT_ID":"46588","MEAN_ELEMENT_THEORY":"SGP4","EPOCH":"2022-09-02T04:29:46.925952","MEAN_MOTION_DOT":"-0.00003017","ELEMENT_SET_NO":"999","LAUNCH_DATE":"2020-10-06","MEAN_MOTION_DDOT":"0.0000000000000","SEMIMAJOR_AXIS":"6925.328","BSTAR":"-0.00018366000000","ARG_OF_PERICENTER":"53.7152","RCS_SIZE":"LARGE","PERIOD":"95.592","TIME_SYSTEM":"UTC","APOAPSIS":"548.448","INCLINATION":"53.0550","OBJECT_ID":"2020-070BJ","OBJECT_NAME":"STARLINK-1746"},{"EPHEMERIS_TYPE":"0","FILE":"3555559","SITE":"AFETR","MEAN_MOTION_DOT":"0.00000322","NORAD_CAT_ID":"46589","MEAN_ELEMENT_THEORY":"SGP4","EPOCH":"2022-09-02T21:50:06.616320","ECCENTRICITY":"0.00015130","CLASSIFICATION_TYPE":"U","TLE_LINE2":"2 46589  53.0537 159.7431 0001513  55.1044 305.0087 15.06391649106291","OBJECT_TYPE":"PAYLOAD","GP_ID":"211566650","PERIAPSIS":"546.191","REV_AT_EPOCH":"10629","COUNTRY_CODE":"US","RA_OF_ASC_NODE":"159.7431","DECAY_DATE":null,"MEAN_ANOMALY":"305.0087","TLE_LINE1":"1 46589U 20070BK  22245.90979880  .00000322  00000-0  40520-4 0  9998","REF_FRAME":"TEME","CENTER_NAME":"EARTH","MEAN_MOTION":"15.06391649","PERIOD":"95.593","APOAPSIS":"548.287","TIME_SYSTEM":"UTC","RCS_SIZE":"LARGE","ARG_OF_PERICENTER":"55.1044","OBJECT_NAME":"STARLINK-1749","OBJECT_ID":"2020-070BK","INCLINATION":"53.0537","MEAN_MOTION_DDOT":"0.0000000000000","ELEMENT_SET_NO":"999","LAUNCH_DATE":"2020-10-06","BSTAR":"0.00004052000000","SEMIMAJOR_AXIS":"6925.374"}];
